{"type":"FeatureCollection","features":[{"type":"Feature","geometry":{"type":"MultiPolygon","coordinates":[[[[-5.52132981631193,54.6764077359602],[-5.52389262681662,54.6704054134686],[-5.52451312490064,54.6689671451133],[-5.53605040419969,54.6742154940268],[-5.54541146171706,54.6728678428278],[-5.5338588202348,54.6816291014366],[-5.53379556543648,54.681649265046],[-5.52132981631193,54.6764077359602]]],[[[-5.52218451866392,54.6970293328793],[-5.52453458490333,54.6926464540355],[-5.52569492602506,54.6975085801919],[-5.52218451866392,54.6970293328793]]],[[[-5.63980565703616,54.2629886432719],[-5.63757388114482,54.2611250273732],[-5.63947493038643,54.2598696822066],[-5.64536101536861,54.2559821797446],[-5.63878763167381,54.2533861967481],[-5.63849850567654,54.2506580374052],[-5.63984765807287,54.2494885414364],[-5.63796143240928,54.2455891120692],[-5.63758025251878,54.2419906035583],[-5.64225982923801,54.2409231879851],[-5.64576222422257,54.2350758470322],[-5.66031798349511,54.2258261237081],[-5.66638763446103,54.235166281881],[-5.6676568890839,54.2344838233693],[-5.67077004647606,54.2384773028501],[-5.67063743736721,54.2386222012033],[-5.67087132815984,54.2386072099027],[-5.67709921757296,54.2465934804608],[-5.6845749181654,54.2495047630025],[-5.6872577214268,54.2505493182048],[-5.69069682751395,54.2506921873267],[-5.69275391768906,54.2513120454368],[-5.69769092239009,54.2509824325539],[-5.70842174440896,54.2514269478459],[-5.71556740617656,54.2497871999083],[-5.72212976693158,54.2493477548977],[-5.72625393317957,54.2530977973724],[-5.74614267523354,54.2518783840702],[-5.75399372444343,54.2472087989972],[-5.7921382209229,54.2446368942787],[-5.8216236976748,54.2433773459281],[-5.83078009087489,54.2533423446971],[-5.83350767304605,54.2567073096583],[-5.81586122860152,54.2591468535356],[-5.81443901750051,54.2854533193295],[-5.81391045743484,54.2866472286149],[-5.81438970974821,54.2863650168936],[-5.81438348807952,54.2864800457757],[-5.81471205098382,54.2861751995222],[-5.8301285833375,54.2770938812606],[-5.82761622023435,54.2753156155829],[-5.82757353146711,54.2753706807031],[-5.82750257340403,54.2753228222624],[-5.82597625932722,54.2774309275505],[-5.82694868582318,54.2748180808767],[-5.83662667574135,54.2658305156397],[-5.83728792567993,54.2654936684742],[-5.83745550509768,54.2650606018738],[-5.84846131097362,54.254833928405],[-5.84961934582096,54.2545070539737],[-5.84974764443357,54.2536382710963],[-5.8500904366515,54.2533196301091],[-5.8497988579966,54.2532836843351],[-5.85036829013147,54.2493407055223],[-5.84042215149404,54.2501890143679],[-5.83926047920935,54.2519839995575],[-5.83332355930111,54.2512430757336],[-5.8300559628416,54.242796824615],[-5.83080762827057,54.241320562026],[-5.83937106597201,54.2363729556167],[-5.8848536772618,54.21411490688],[-5.89272139525627,54.2055095305166],[-5.89286626873741,54.2054256269818],[-5.89284530759063,54.2053739679987],[-5.89280567927249,54.2053170788802],[-5.87177602642365,54.1676037211965],[-5.87934211939978,54.1487005941997],[-5.88918638161073,54.1347454296999],[-5.88765693281612,54.1279076316669],[-5.89147767901638,54.1183462850517],[-5.89232779375827,54.1178550357876],[-5.89295108925003,54.1146579632333],[-5.89652346431487,54.1057127732788],[-5.89833942067442,54.1040136670771],[-5.95194553347635,54.0777935844415],[-5.95254741894527,54.0769767639381],[-5.9541416683716,54.0762067415726],[-5.96304560931326,54.062724190445],[-5.99615549369535,54.0612954492415],[-5.99185499754381,54.0588602843391],[-5.98897971314339,54.0577420530719],[-5.98818234439061,54.0575919823517],[-5.99991184887874,54.0550094855753],[-6.01363127716968,54.0419332525013],[-6.02994487054559,54.0359363955608],[-6.06317856379422,54.0228460978972],[-6.06337424668607,54.0229225475498],[-6.06585725990137,54.0282569368297],[-6.07989155714156,54.0293733110984],[-6.08263105619057,54.0304427913077],[-6.08906913104999,54.0364447152264],[-6.10757095911421,54.0401736460887],[-6.09982333727292,54.0437052595663],[-6.0985085403041,54.048565148579],[-6.08305591543291,54.0469529608509],[-6.08242665304665,54.0450218377393],[-6.07987448669361,54.0466207750625],[-6.07308137192486,54.0459096435968],[-6.09490394343496,54.062616218878],[-6.09494940355491,54.0626422695916],[-6.11382286649098,54.0633237638136],[-6.12552335959315,54.0659523591365],[-6.13169025646128,54.0639661710053],[-6.1465622857048,54.0644988366053],[-6.15005122617823,54.0657811779229],[-6.15938706237367,54.0649566834428],[-6.17875817361618,54.0743113191135],[-6.18318386618747,54.0736562310363],[-6.18999220404274,54.0864652072813],[-6.19073828106193,54.0939417762274],[-6.19809850043,54.098170061891],[-6.23437058081228,54.1013359705049],[-6.24755938180134,54.0989336570565],[-6.25408551105308,54.0963536343388],[-6.25567160085879,54.1007058769471],[-6.25873506311618,54.0991692867873],[-6.26489989846192,54.1011529684328],[-6.26960453063656,54.1032401822938],[-6.27610435759088,54.1081004064962],[-6.28461545468817,54.1107354427429],[-6.29088218758648,54.1126750153287],[-6.30902232580748,54.1067085415914],[-6.3180123204477,54.0909620594035],[-6.33635474710237,54.0947223130336],[-6.33447991431864,54.1050802928052],[-6.33994727669772,54.1119075974795],[-6.34906475013668,54.1139295859208],[-6.35121509101274,54.1126457249785],[-6.36630868814025,54.113632767889],[-6.3663795812168,54.113640210888],[-6.36639197096857,54.1135707547574],[-6.3666277501201,54.1020873296985],[-6.36548562359527,54.1006271766174],[-6.36505948422908,54.0945375569988],[-6.3661145711806,54.0939041889931],[-6.36355274375571,54.0725925202476],[-6.38273391387147,54.0684604142169],[-6.39140536934335,54.058863298659],[-6.39163232499169,54.0589097471753],[-6.39527601793198,54.0615497784673],[-6.41199494473418,54.063074933936],[-6.43077457036267,54.0591396195827],[-6.43341764882806,54.0610639540978],[-6.44352624932341,54.0564653965045],[-6.45603934165551,54.0725438529293],[-6.4777577915687,54.0771101481981],[-6.48176915541442,54.0725572953367],[-6.47127143322683,54.0662947127334],[-6.48434371059115,54.0667373973363],[-6.49654611420946,54.0592580440722],[-6.50986142693809,54.0574647730109],[-6.51052802634723,54.052670953858],[-6.53196711277821,54.0596523880352],[-6.55573204982702,54.0501631005869],[-6.55622341261651,54.0500998206522],[-6.562020959631,54.050461803287],[-6.56932989928417,54.0525699760713],[-6.5692141224962,54.053529761846],[-6.58493695022589,54.0571651274328],[-6.58661444892787,54.0575528304895],[-6.59572437476962,54.0519808068215],[-6.59494294960026,54.0445960754791],[-6.60454330315852,54.0450076314173],[-6.60589157727098,54.0415247426969],[-6.60944583068589,54.0405273870033],[-6.61612207038796,54.0425656061374],[-6.62383843790942,54.0364871479256],[-6.64378615866885,54.0525473151758],[-6.64994380779717,54.0614788761837],[-6.65579541555968,54.0622083120581],[-6.66865811877121,54.0725493673677],[-6.66888232457386,54.0728376502768],[-6.65816569629923,54.0762026413059],[-6.65575492444839,54.087197577417],[-6.65865463086733,54.0897707594472],[-6.65888409686261,54.0961329854719],[-6.651156161676,54.0929932085278],[-6.64819474568764,54.0959910294641],[-6.64507324714177,54.0959493960601],[-6.64627325556469,54.0979358782837],[-6.64506226106335,54.0991614886963],[-6.66057542506824,54.1215951457167],[-6.66117950206973,54.122593771755],[-6.66100988028106,54.1226471160028],[-6.6497029450697,54.1216826247399],[-6.64885273722872,54.1213903138745],[-6.64887959941754,54.1216123492029],[-6.64857715967784,54.1215865335219],[-6.64296096890166,54.1310534071223],[-6.63981022353841,54.1316395183733],[-6.64017842231584,54.1357421637287],[-6.63437352298199,54.1455203217214],[-6.63165596932925,54.1470156955398],[-6.62982035744303,54.1531867185134],[-6.62975009370253,54.1533050025629],[-6.62977271608014,54.1533468602567],[-6.62971588703464,54.1535378798767],[-6.63562302163919,54.170732937824],[-6.64405486228898,54.1797542887783],[-6.66001458713859,54.1865941188118],[-6.66497631776319,54.19314270972],[-6.67315242200415,54.192221224958],[-6.67412069587091,54.1926358287829],[-6.67837170066374,54.1956305436278],[-6.67958358250221,54.1949746703328],[-6.69185994092017,54.2002286755499],[-6.71010228459993,54.1980400242396],[-6.71556121364386,54.1900281886217],[-6.72091961505512,54.1871676051691],[-6.72103447895283,54.181992092977],[-6.73512449039407,54.1857696328349],[-6.74110982825868,54.1824530535835],[-6.75594648969665,54.1990362705866],[-6.77549641220681,54.1989008464755],[-6.77661939252831,54.1994832388515],[-6.79570321782186,54.2102112816968],[-6.80040605043544,54.2211039992769],[-6.8086448986228,54.2247073837472],[-6.81616846653069,54.2230075553295],[-6.81908100354827,54.2385391092731],[-6.82148784770021,54.2406883746999],[-6.82774017794984,54.2614484817672],[-6.83935003769493,54.2677347853647],[-6.84325799877376,54.2668800917259],[-6.87800193574229,54.2790286393975],[-6.87290946825205,54.28744455991],[-6.87171866080818,54.2875084167589],[-6.86926157073645,54.286399251867],[-6.86805439408681,54.2821179550188],[-6.86146216770293,54.2811132372365],[-6.86124697662073,54.2827805701566],[-6.85912806103834,54.281823655401],[-6.85414840063089,54.2910642255044],[-6.85095257282283,54.2919803793313],[-6.85171928903334,54.2955703490723],[-6.85076028151054,54.2973490864085],[-6.85731792773928,54.310161791045],[-6.85634141650173,54.313593452319],[-6.85947070447062,54.3143660780524],[-6.86363142300622,54.3224890875988],[-6.86392370929618,54.3300912984315],[-6.86967110203256,54.3342740675976],[-6.87595228738454,54.3465223252159],[-6.8760399453605,54.3465335970849],[-6.87604222383114,54.3465722071934],[-6.87625106245576,54.3465607450487],[-6.88923387962488,54.3482294377932],[-6.89311626284525,54.3511541311775],[-6.90637099573104,54.3504297179674],[-6.90294617370281,54.3607744890333],[-6.90917765190466,54.3645739471144],[-6.90957937073086,54.3665974913963],[-6.90670618369001,54.3694187528225],[-6.91046109955567,54.3710381440782],[-6.91112101449518,54.3743609376014],[-6.9110396791768,54.374527367454],[-6.91116343048624,54.3745744910987],[-6.91118846883604,54.3747005468387],[-6.91168428452886,54.3747728251952],[-6.92204894783346,54.3787186634706],[-6.92717574524631,54.3770299552463],[-6.9319210778054,54.3777209052258],[-6.93216465185067,54.3781509576195],[-6.9239279838725,54.3828199877514],[-6.92375216497653,54.3828753647008],[-6.92382778868653,54.3828767746143],[-6.92379310878419,54.3828964293487],[-6.94505101533755,54.3884424087731],[-6.94405688306617,54.3911015252593],[-6.95964882490876,54.3922477497736],[-6.95918535986725,54.3978896544197],[-6.96852333345696,54.3998245940003],[-6.97879497001987,54.4085898208672],[-6.98921198491487,54.4093354593017],[-6.98776666453744,54.4073141120007],[-6.99582333770896,54.4053695206737],[-7.00212471984667,54.4085029791373],[-7.00058824322871,54.4132337411147],[-7.01337394039489,54.4169613263789],[-7.0155980476462,54.4148619949346],[-7.02822034332405,54.4209170033993],[-7.02842949288274,54.4210286772308],[-7.02907277361944,54.4213258057242],[-7.0571759103693,54.4110731777628],[-7.05731892387409,54.4110218406487],[-7.07239903360521,54.38835071238],[-7.10970473285652,54.3683160196757],[-7.10352976875599,54.3559600161827],[-7.12369403339719,54.3507491738819],[-7.13891341051916,54.3410316784287],[-7.14878843785254,54.3368812044068],[-7.15331165024891,54.3352650013301],[-7.15612943486879,54.3354545212644],[-7.18163324396459,54.339824065009],[-7.18883022750182,54.3376489453031],[-7.1791487776856,54.3096899985047],[-7.19786709720635,54.3110650349315],[-7.21219347850518,54.2996019194678],[-7.20696792197852,54.2943765886036],[-7.17290746325423,54.2860659256987],[-7.17375176886216,54.2842836711755],[-7.17929558041075,54.272577474918],[-7.1766472803361,54.2705322308619],[-7.16064553484887,54.2736163937031],[-7.15919643468407,54.2690633908565],[-7.15421509273864,54.2673302726339],[-7.15212363756431,54.2652852493344],[-7.15043656371349,54.2583483929277],[-7.14224373046422,54.2556213291848],[-7.15899118818347,54.2436668854611],[-7.14604061613308,54.2397503064081],[-7.1498889185796,54.2316202704102],[-7.14495174669456,54.2247154737627],[-7.17110982867386,54.2175920839615],[-7.18443900550832,54.223246613633],[-7.18431358629077,54.2243403484058],[-7.18827352231707,54.2248727269997],[-7.1987865312557,54.2156114135009],[-7.22084650877722,54.2158112540253],[-7.22092476445441,54.215738468697],[-7.22103432676444,54.2157659774406],[-7.23265404302411,54.2108795082124],[-7.23176074944275,54.2056570872781],[-7.23180028353549,54.2056202962908],[-7.23904679526265,54.2068337901698],[-7.24562752665744,54.2045902130936],[-7.24806176344715,54.2044169710851],[-7.24818526096042,54.2037180420871],[-7.24910372390233,54.2034048295158],[-7.24921327322081,54.197899294244],[-7.23297728668329,54.1977969400791],[-7.25905874252243,54.192242098287],[-7.25824823551584,54.1773765201962],[-7.24026995808637,54.1696848129107],[-7.25811531778973,54.1645162640599],[-7.25813134526163,54.1644904187435],[-7.25812549221926,54.1644588602645],[-7.26134036102923,54.1463138679418],[-7.26390160359933,54.1452647185325],[-7.26291107919642,54.137443862241],[-7.2775565764154,54.1296185164566],[-7.27803764337929,54.1278575375896],[-7.29186306048168,54.119090396111],[-7.30893642539855,54.1321126023628],[-7.29856183687497,54.1337904474429],[-7.29264236830238,54.1305661287491],[-7.28535937791346,54.136482154303],[-7.28416935535151,54.1397666269487],[-7.30131930005387,54.1440803705271],[-7.29212029225398,54.1492125252434],[-7.28992530141216,54.1491915822078],[-7.2838007292864,54.1538523719057],[-7.27976514993974,54.1676268133549],[-7.29134270514924,54.1719426740305],[-7.30210685703849,54.1663296122057],[-7.31021417692712,54.1673091622057],[-7.32134503353147,54.1562916357768],[-7.33945498671651,54.1468352310104],[-7.32922825710891,54.1398028784939],[-7.32757788962601,54.1353045590319],[-7.32395187787932,54.1361732909255],[-7.31404563819938,54.1293564350793],[-7.31609099316943,54.1269362908263],[-7.30532907405191,54.1233556283649],[-7.31876358850756,54.1133942304815],[-7.31884174501556,54.1133654100659],[-7.32706512378151,54.1245944000994],[-7.34465153516355,54.1171470973128],[-7.34638103082305,54.1224907060067],[-7.36352050614821,54.1314395495074],[-7.39189821530749,54.1202016982033],[-7.37278393579758,54.1395220062487],[-7.37546794009914,54.1419152734281],[-7.38358729638114,54.1413179655398],[-7.38820939875031,54.1386595216101],[-7.39563205082521,54.1382437826024],[-7.40304933977885,54.1409119743405],[-7.42038940357354,54.1368537674581],[-7.41469141999043,54.1470358102694],[-7.4121085389359,54.1485140200766],[-7.40955331328968,54.1562131329523],[-7.44233997568184,54.1539028096938],[-7.46850236125283,54.1407850204133],[-7.47932887615282,54.1222484755681],[-7.52814113482711,54.135756148101],[-7.53951962224723,54.1276908381956],[-7.54672926001296,54.129213953337],[-7.54738750034438,54.1221115250794],[-7.55850882981854,54.1278287067894],[-7.56572847123677,54.1265865956197],[-7.56922618860447,54.1328878221709],[-7.56948495024989,54.1329237789824],[-7.57456954321682,54.1414980051346],[-7.6104043629189,54.1437969797738],[-7.61139035110654,54.1472063547523],[-7.61347475693907,54.1481161035358],[-7.62529849215763,54.1647388925526],[-7.62529952476506,54.1654306130948],[-7.62743876059941,54.1677462199014],[-7.62850235349816,54.1692405070002],[-7.62920651201745,54.1696594812566],[-7.62966159907421,54.1701502893393],[-7.63061915640961,54.1704999664285],[-7.65612031673228,54.1856634744223],[-7.65821918378314,54.1852864660429],[-7.66056543674824,54.1870203247063],[-7.6645062474037,54.1879539873472],[-7.67005671895056,54.183159345208],[-7.67650673248163,54.1819997471775],[-7.67656173465244,54.1820061465356],[-7.67667191719688,54.1823267002496],[-7.67950129130064,54.1924963384063],[-7.68020866160674,54.1926130921968],[-7.68542757447256,54.2077593896842],[-7.69920579500818,54.2066754630783],[-7.70202036536718,54.2077937216308],[-7.70489941715419,54.2062274073152],[-7.73919279029563,54.2035228300396],[-7.74836228487911,54.2094405812934],[-7.76165402088723,54.2081253963663],[-7.76799527676691,54.2094238337937],[-7.77967223025735,54.2071327759434],[-7.80367474061294,54.2070152743076],[-7.81147150795378,54.2008866906212],[-7.82985707671463,54.2071737514034],[-7.86024218460512,54.2175535507195],[-7.85536335899384,54.2226935973909],[-7.86005987830954,54.2296050374722],[-7.8603656074164,54.2527716459686],[-7.86046471107513,54.2602601265533],[-7.87280332492433,54.2662087355036],[-7.87320720150304,54.2795200850969],[-7.8657550404965,54.2887144615784],[-7.86462704288226,54.288821593429],[-7.86188555448805,54.2934868663368],[-7.87326711331351,54.2942669772953],[-7.88108360200853,54.2919611269703],[-7.88115885915477,54.2919960398477],[-7.88818652258611,54.3005416211367],[-7.90150020523301,54.3014286974874],[-7.9108875376846,54.2959999072203],[-7.91850338939389,54.3031279590325],[-7.9352655271601,54.303896780154],[-7.96165131898819,54.3124348820642],[-7.9633806601054,54.3204433943135],[-7.97223729909468,54.3308037254264],[-7.98105695348687,54.3353832660542],[-7.98378935735944,54.3386120801215],[-7.98645033694615,54.3441940423246],[-7.98900588855236,54.344774663906],[-8.00028816203084,54.3580955956059],[-8.00036209761637,54.3580922419284],[-8.00036657558952,54.3581491370417],[-8.00772867500474,54.361223670382],[-8.01598019665295,54.357382737359],[-8.0180496970268,54.3572885699633],[-8.02579365197621,54.3599098592686],[-8.03135168846063,54.356682437536],[-8.03945016622673,54.3626326326682],[-8.05739402500478,54.3657415563228],[-8.05602993651329,54.3685588060076],[-8.06347564118086,54.3729453953708],[-8.08413725874874,54.3973973768306],[-8.15924947012895,54.4403151335847],[-8.1600385589708,54.4423661310341],[-8.15698897786666,54.4439026064116],[-8.15028834315026,54.4438814528867],[-8.14279635279763,54.4506602405229],[-8.14325421072094,54.4508202905683],[-8.1430559506859,54.450920119148],[-8.16840836182269,54.4611255794136],[-8.17009405623402,54.464552304152],[-8.17568042033144,54.4647217730118],[-8.17557244310717,54.4640075015804],[-8.17748428228008,54.4647764398753],[-8.11474984451233,54.4690580743906],[-8.11451664375332,54.4701477661094],[-8.1114963491917,54.4702923821077],[-8.11410512909851,54.4720705587687],[-8.11318277432389,54.4763797004404],[-8.09111345060057,54.4763465623801],[-8.09861391344696,54.4842129600388],[-8.08903810530474,54.4870898931685],[-8.04260603057662,54.4877233146277],[-8.03850784250407,54.50319032951],[-8.04175544626199,54.5064922694045],[-8.01285476042158,54.5331556991588],[-8.00596571136953,54.5459418315675],[-7.99141437347434,54.543070673579],[-7.97031661793301,54.5472898677962],[-7.94972356429179,54.5336450692052],[-7.93868247074793,54.5335777046932],[-7.93755965741867,54.5330863834603],[-7.93444582010579,54.5335515875977],[-7.85051187442265,54.5330034424757],[-7.82390895322847,54.5444047818661],[-7.83324202177038,54.5523421121136],[-7.79659126993713,54.5716240481424],[-7.79404163860916,54.5815882991937],[-7.78708808537753,54.5802091938881],[-7.76229314599287,54.5858683035735],[-7.75147497886599,54.5987990265961],[-7.70348193231686,54.6084590729046],[-7.70225873050391,54.6090533110661],[-7.69729319643734,54.6100865042857],[-7.69779863049309,54.6112198059169],[-7.6948941601474,54.612630444549],[-7.69348361893585,54.6191113536122],[-7.70144841583829,54.6194013867836],[-7.70415693148661,54.6254705757858],[-7.70341209854568,54.6274292562119],[-7.70836787720627,54.6349023548588],[-7.72499454414783,54.6264201307992],[-7.73784452845731,54.6227567923847],[-7.74105221380784,54.618641718878],[-7.74159461592634,54.6179457949048],[-7.74209470789508,54.6185921241266],[-7.74338965597814,54.6202656301765],[-7.74597433238827,54.6198498968216],[-7.75788087261612,54.6250245742234],[-7.77245901747305,54.6215031575955],[-7.78368287832179,54.633324708142],[-7.79444370028047,54.6335667994783],[-7.81325914533255,54.6438839956879],[-7.8283341735116,54.6330407538481],[-7.8425459521657,54.6339862962881],[-7.84724150654945,54.6322350597481],[-7.8543489543293,54.6319314193336],[-7.8545369829731,54.6320123565625],[-7.85456592864153,54.632272952089],[-7.85082914116583,54.6362160994545],[-7.85521808197297,54.6381430207242],[-7.85658899607321,54.6504753478437],[-7.87731825000091,54.6557131696048],[-7.88941180520211,54.6558858035276],[-7.8922143868401,54.6563472906362],[-7.89437071407819,54.6575069607616],[-7.89568915579657,54.6582159637599],[-7.90657260645888,54.6658672235905],[-7.9124870700012,54.6732810441365],[-7.91367841866587,54.6755965976516],[-7.89850860274244,54.6849893035269],[-7.89861224599964,54.686678995921],[-7.89866241309248,54.6874967811705],[-7.89804120385091,54.6879682379116],[-7.89870553047578,54.6881996034166],[-7.89885562658892,54.6906459375352],[-7.89918166957635,54.6905915373557],[-7.90350339029827,54.689870369196],[-7.91085392890152,54.6924294070229],[-7.9126721926931,54.6943146822325],[-7.92101292530627,54.6959648963625],[-7.91811315961143,54.702716801336],[-7.91084699542746,54.7009651072357],[-7.90828817754959,54.7027057646313],[-7.90361793909569,54.7027002377982],[-7.90083318613408,54.7019332405221],[-7.89524894662142,54.700394902321],[-7.891563971203,54.7026851398671],[-7.87947186665784,54.7026687852468],[-7.83668374304635,54.7364274220209],[-7.81769741912035,54.733808611808],[-7.80470883154511,54.7186520454801],[-7.78867311279766,54.7196163827704],[-7.77874181766923,54.7156790145254],[-7.77808727669009,54.7103874819355],[-7.75996356849276,54.7082297561902],[-7.75543584165269,54.7064327590343],[-7.75682875929544,54.705523374835],[-7.74994675840576,54.7042537602884],[-7.74493161313278,54.7051987610734],[-7.7353025507446,54.716913106197],[-7.71160962784439,54.7260965567849],[-7.69703140011684,54.7237701778127],[-7.68559814955963,54.7290235633358],[-7.67736464774538,54.7308936007927],[-7.67020269043065,54.736093740789],[-7.63662067766314,54.7515008447956],[-7.6175977990824,54.7433604199938],[-7.58855084332541,54.7436947687147],[-7.57919977655184,54.7497093562408],[-7.57813264123048,54.7494485347469],[-7.57840150544261,54.7417519566104],[-7.54918948339756,54.740485503449],[-7.53424902817404,54.7470300331798],[-7.54754787558454,54.755347778463],[-7.5481071441704,54.7726548167813],[-7.54323658141665,54.782468526924],[-7.54930558585403,54.7893537464456],[-7.53535952450746,54.8015071571458],[-7.52758524126884,54.8028839082444],[-7.52825704816342,54.8076933548761],[-7.51744027834167,54.8082229635902],[-7.51536801444515,54.809195962352],[-7.48506431534793,54.8234153680316],[-7.48407812861888,54.8237740197135],[-7.48390600892439,54.8239585385625],[-7.48381613145598,54.8240006840369],[-7.4837698255374,54.8241045312737],[-7.47640240843836,54.8320008735941],[-7.47085547588209,54.8348883712804],[-7.46739787506013,54.8416472463301],[-7.45593611757438,54.8539186483874],[-7.44996261035493,54.8631973346177],[-7.44316031457941,54.8712170227346],[-7.44335984841737,54.873448416909],[-7.4418810522627,54.8757435886047],[-7.44395398075852,54.8800906398302],[-7.44428922592958,54.8838372423329],[-7.45242047361023,54.8982629509306],[-7.45237150756291,54.8986240807353],[-7.44520468283144,54.9109627876506],[-7.4471873528439,54.934915674574],[-7.40831790613473,54.9423374381548],[-7.40525005865167,54.9421769835442],[-7.3920842152073,54.9454326617752],[-7.4060907351913,54.9544813490238],[-7.40208464846467,54.959575515063],[-7.40717645051812,54.9634436728421],[-7.4071731440265,54.9639960205068],[-7.40035297607133,54.9721955650672],[-7.40703651180208,54.982970935776],[-7.39145871224322,54.9978444533259],[-7.40558090810418,55.0033098726733],[-7.3911996317183,55.0202070644154],[-7.36800617336119,55.0367325939373],[-7.34581158338121,55.0504271671838],[-7.3241844044436,55.0462219456477],[-7.32170136409363,55.0451688286085],[-7.32084270548137,55.0455717528573],[-7.31834615465421,55.0450859261378],[-7.29943214354827,55.0561250004358],[-7.28920053213695,55.0474115970289],[-7.28910567924067,55.047469938712],[-7.28907307626556,55.0474426046796],[-7.27727116844029,55.0543391720685],[-7.27697514423643,55.0549291464982],[-7.2569451141616,55.0672373206424],[-7.25467956046024,55.0600772500149],[-7.25522026300349,55.0634493758993],[-7.25086849049492,55.064308999422],[-7.2554842153243,55.065438567032],[-7.24552750704227,55.0634967405763],[-7.25459453810687,55.0519792828529],[-7.25303690182705,55.045189514286],[-7.25140775197102,55.0452890872462],[-7.25176910778275,55.0441696844501],[-7.23280866116844,55.0482121205093],[-7.22508989609492,55.0607019031277],[-7.21417887634433,55.0568821736004],[-7.193842308717,55.0595614626483],[-7.14803297593964,55.057328254676],[-7.14796913269343,55.0460891664171],[-7.13081405113029,55.0420123051312],[-7.10986779238881,55.0425365359911],[-7.05954799950252,55.0476027843045],[-7.05140702774819,55.0495379424863],[-7.0507112172997,55.0531837320743],[-7.048605974315,55.0545130002644],[-7.04655031895406,55.0509935378091],[-7.0417028176681,55.0530572787042],[-7.04477839923446,55.056929450303],[-7.04420512611957,55.0572913386276],[-7.04134383408419,55.0556329031008],[-7.04376832519815,55.0575670697809],[-7.03440141524778,55.0634786931572],[-7.0211293150839,55.0702667607778],[-7.01876242352394,55.0733433676117],[-7.01449417799302,55.0760345008798],[-7.0149442917632,55.0783053226111],[-7.01492349664467,55.078332343878],[-7.01387317032351,55.0796970936668],[-7.01528144439098,55.081185621223],[-7.01557729626805,55.0814983149837],[-7.01940262584566,55.1007813879523],[-7.01856542807399,55.1013237289902],[-7.00203587659744,55.1060838724569],[-6.99692972422837,55.1058605530298],[-6.9899928625477,55.1095498927835],[-6.97362999389521,55.1426911592993],[-6.96675845093961,55.1527156108338],[-6.96438232246474,55.161397598238],[-6.96280597623442,55.1645845646444],[-6.96301039875884,55.166408832848],[-6.9600699617103,55.1771455553166],[-6.96580787535269,55.1929381100989],[-6.96606542503931,55.1936466399929],[-6.96616636672274,55.1945458090013],[-6.9654125985202,55.1944495321838],[-6.93913801164931,55.1868178725632],[-6.9109316410512,55.1737154325555],[-6.88437320741313,55.1708829337071],[-6.87472061554582,55.1680703785114],[-6.85870893164744,55.1681398693815],[-6.84621224184723,55.1668020812002],[-6.81991974174641,55.1668358226303],[-6.78205403607395,55.1683380639017],[-6.78127684506761,55.1684461931729],[-6.76960134343438,55.1684881070587],[-6.76844180462335,55.1673893413317],[-6.75877642280013,55.1685259660727],[-6.75262324907807,55.1685470567638],[-6.73828176719886,55.170937211825],[-6.72715756560235,55.1722444438736],[-6.72704041893302,55.1728093277563],[-6.72458284769989,55.1732184475634],[-6.72316489477386,55.1820013470541],[-6.71918519745805,55.1840855765945],[-6.72189458801621,55.1898669965185],[-6.71427359441558,55.1888573649088],[-6.71340326463046,55.188740963151],[-6.71027854717151,55.1915556622004],[-6.70409536402421,55.1924377562413],[-6.70345051381443,55.1922392685577],[-6.70255585643003,55.1926573281126],[-6.65949589010718,55.1987899455026],[-6.6596022596056,55.199225557492],[-6.65837982452969,55.1994678137942],[-6.6559902119577,55.2051855996012],[-6.65559742758964,55.2061260432227],[-6.65785974057113,55.2080058296692],[-6.65985424046347,55.2057000294347],[-6.66285414754466,55.212657375107],[-6.6495913444646,55.2050611652569],[-6.60643759197252,55.2059195327885],[-6.60619053907556,55.205984943328],[-6.60580199452477,55.2059427023396],[-6.5964596581329,55.2074473753518],[-6.58201489446175,55.2097726018897],[-6.55294275866893,55.2200665212624],[-6.54761442250931,55.2158582660573],[-6.54689426222837,55.216964458286],[-6.54542699426571,55.216203637552],[-6.5386995141603,55.2196963126599],[-6.53624172055231,55.2195414385284],[-6.53108843416829,55.2236465578196],[-6.5285204721068,55.2249790824042],[-6.5286647435942,55.2255769147109],[-6.52765815591207,55.2263785482856],[-6.52913929344358,55.2275432064374],[-6.53062516872186,55.2336985075609],[-6.5177559148939,55.2352704652001],[-6.51809427991685,55.2385114105529],[-6.51474760326091,55.2397964031727],[-6.50616733191888,55.240391992174],[-6.50461309737399,55.2436866059411],[-6.49765380099223,55.2463570669739],[-6.49697435789379,55.2462132747902],[-6.48893550622982,55.2497014492904],[-6.48307133143469,55.2519503190522],[-6.46838096219081,55.251206231516],[-6.45495074152445,55.2390595834363],[-6.40930554102057,55.2322799198476],[-6.40922833087486,55.2322700949775],[-6.40913832219857,55.2322998326785],[-6.40463630454056,55.2329147040881],[-6.39174891008209,55.2346738053922],[-6.38307663462491,55.2402291787059],[-6.36802002692282,55.2458111722722],[-6.36786462422196,55.2457841666305],[-6.3610018726348,55.2421391578129],[-6.35864373377189,55.2408857902896],[-6.35099248030853,55.2426707515401],[-6.34481293054254,55.2390224082277],[-6.3325546893958,55.2396362548419],[-6.3125293877216,55.229783518314],[-6.28942674601603,55.2302465723164],[-6.28731330455335,55.2247827818111],[-6.28726102671185,55.2247609659015],[-6.2720971161514,55.2211959977407],[-6.26905146622556,55.2193662999717],[-6.25706938193585,55.2121655474277],[-6.25318644706965,55.2114869036972],[-6.23618491046875,55.2026761066815],[-6.17805897620753,55.2138297275261],[-6.1459150896172,55.2280094061846],[-6.14582416655926,55.2279794442603],[-6.116145233079,55.2095410890279],[-6.11609803921662,55.2095336052615],[-6.09039778241044,55.2044552040013],[-6.08675327374157,55.2030025778925],[-6.07413148321216,55.1979701018179],[-6.06222813377427,55.1988810582343],[-6.06396761360057,55.1900573285294],[-6.05601989174809,55.1846669763198],[-6.05510448920947,55.1840457858849],[-6.05112740434817,55.1757580880023],[-6.04931190140507,55.1746699756431],[-6.04901184657909,55.1740146387388],[-6.04746436560862,55.1735625736093],[-6.0284109748082,55.1621367524353],[-6.02678688445204,55.159660687073],[-6.02558393844291,55.1418916502138],[-6.02554823737647,55.1404101670961],[-6.04119285699022,55.1310151538216],[-6.04087395568102,55.1293214919653],[-6.04203878193029,55.1285142043396],[-6.0418754962394,55.1247767007182],[-6.03991653705047,55.1242357313353],[-6.03596824644485,55.1032469865918],[-6.05873073561034,55.0812325796146],[-6.05281537882682,55.0657457133718],[-6.05441731128083,55.0665871440149],[-6.05830799553766,55.0642687867789],[-6.06224944358356,55.060088368511],[-6.04249800196016,55.0529881284478],[-6.04244812238582,55.0529667037484],[-5.99698933463252,55.0587644346634],[-5.9880870535795,55.0576699918358],[-5.96479416705047,55.0488349782718],[-5.96398602547721,55.0464897264151],[-5.968058754685,55.0369928183034],[-5.97210529770794,55.0310155124115],[-5.97361655223443,55.0240259207538],[-5.98222800096124,55.0039184225374],[-5.98725381117999,55.0004450542552],[-5.99166571770805,54.9863956005934],[-5.99021876115771,54.9852426693962],[-5.99039828444369,54.9848229008489],[-5.98921158413366,54.9844401024555],[-5.98233352187414,54.9789582253199],[-5.97577791002293,54.9801054155088],[-5.96137531682257,54.9754553584007],[-5.95555307309457,54.9692513713196],[-5.94335816174213,54.9696343201934],[-5.91898707001459,54.9617533994696],[-5.87805459518433,54.9076396726483],[-5.87566066020679,54.9065629022494],[-5.87503238654783,54.9056069723352],[-5.86000687774792,54.899519346043],[-5.85828274057395,54.8987432761377],[-5.85814196707381,54.8987635185026],[-5.85794487126361,54.8986836345906],[-5.84429569303279,54.9007536788139],[-5.83761413503137,54.881119811874],[-5.83730969572827,54.8809886206323],[-5.83719906014457,54.8806754336047],[-5.79760395007116,54.8521544729954],[-5.78332982514518,54.8510840308584],[-5.78312336944029,54.8515293644749],[-5.78234635777064,54.8514875940525],[-5.77980646227525,54.858682725001],[-5.76604530477061,54.8522504955264],[-5.76161410221165,54.8542142393254],[-5.76197684754578,54.8557656699147],[-5.75847703048724,54.8587889493829],[-5.75833599586193,54.8587722928437],[-5.71431692859883,54.8384420810149],[-5.69105784326231,54.8052305527158],[-5.69044856143425,54.7974931321595],[-5.69474891590952,54.7741266733341],[-5.68804706275384,54.7669586146604],[-5.70244197800724,54.7580850210449],[-5.70454273135566,54.754755357581],[-5.72259201108988,54.7413919661067],[-5.72893254145643,54.7390859653988],[-5.73524873060144,54.7367882330497],[-5.74424872422853,54.7253427882057],[-5.75741687813999,54.7242192864207],[-5.75731516000604,54.7240961544591],[-5.77149600733071,54.7227415217545],[-5.77307563614873,54.7235018229745],[-5.78661167080744,54.7216821082427],[-5.78804604909719,54.7211583644109],[-5.79008259112061,54.7209633875502],[-5.79204572130838,54.7196953875991],[-5.79649921752187,54.7180661372986],[-5.80564468321141,54.7143307648249],[-5.8066617507423,54.7103437748519],[-5.80683332800335,54.710316695973],[-5.82448610413148,54.7104175626982],[-5.84070013154874,54.705219001141],[-5.84093444096093,54.7049292074811],[-5.84142702103418,54.7048513069117],[-5.8845588331625,54.6803870288157],[-5.88879709062772,54.6781804742442],[-5.89569510328682,54.6740633913705],[-5.91285948795053,54.6479848355848],[-5.9122969429999,54.6478415236936],[-5.85522913160919,54.6335224770354],[-5.83811079867327,54.6422972332599],[-5.82990195546225,54.6449826024405],[-5.80539760499803,54.6590488307272],[-5.76127468046282,54.6707344113348],[-5.74102429190467,54.6776159538106],[-5.72844120391966,54.671074446688],[-5.72240208080015,54.6679277695569],[-5.72067687547252,54.6670337788185],[-5.69727927603175,54.6680756606638],[-5.69283186352203,54.6658154759831],[-5.68628327731542,54.6673147014673],[-5.67991889705293,54.6687699689789],[-5.67281548581259,54.6631957125491],[-5.67290852086801,54.6629966203665],[-5.67269953573997,54.6631047068859],[-5.6725310846084,54.6629724929908],[-5.66552747989877,54.6663644878257],[-5.66435836409215,54.6662024825841],[-5.65601073735888,54.6709717377267],[-5.65098403962907,54.6656077569329],[-5.6445610471122,54.6672565061386],[-5.64150559614578,54.6662637322565],[-5.63919078580987,54.6686346641388],[-5.63500770921245,54.6697079290079],[-5.63568189771621,54.6722280247787],[-5.62863304873213,54.6794443935368],[-5.6246638880373,54.6778484409164],[-5.62128381098333,54.6794975108053],[-5.62097194287593,54.6794672232085],[-5.6221520447214,54.6772081243295],[-5.61029401567382,54.6749098774543],[-5.6012887361948,54.6775539221098],[-5.59383259816161,54.6768282631313],[-5.59045668091986,54.6750890326376],[-5.58945142642681,54.6745708993955],[-5.58668831411453,54.6761324976165],[-5.57646024935499,54.6751356307944],[-5.56818273029253,54.6635918416632],[-5.55285617830669,54.6555429838192],[-5.54537678975067,54.6548814788976],[-5.54021012564674,54.6515120653593],[-5.53800396188822,54.6461820123186],[-5.53676394639777,54.6431830135128],[-5.53023632416767,54.6449982097865],[-5.53019904968831,54.6449182121535],[-5.53407313546565,54.6224450665148],[-5.52161466863824,54.5976168612403],[-5.52050684895232,54.5967796658721],[-5.51989841252334,54.5956860644321],[-5.51834169573208,54.5951432969868],[-5.50277186513377,54.583370882775],[-5.50098070900722,54.5792927736437],[-5.49660355432981,54.5787045076432],[-5.47724932767884,54.564053706232],[-5.48576535864182,54.546621467349],[-5.48298437531507,54.5405930617508],[-5.48376948686596,54.5397969982145],[-5.48169387933719,54.5338754877271],[-5.47905942881611,54.5320815586135],[-5.46356476957873,54.4984426359494],[-5.4633708579678,54.498373967031],[-5.4631572328081,54.4978922605414],[-5.44378675997561,54.4911580432908],[-5.43301530439466,54.4874075982326],[-5.4420049101522,54.4756195602176],[-5.43809877532985,54.4643196835019],[-5.4400102612987,54.4594090320882],[-5.43616279237745,54.4573246958087],[-5.43977278823343,54.4563570141086],[-5.4356139142063,54.457127811339],[-5.45119588634407,54.4494950504762],[-5.45222423356923,54.4469624491618],[-5.47261576053431,54.4344731531355],[-5.47817492290475,54.4319100137969],[-5.47805741441523,54.4311384364476],[-5.47929553005898,54.4303795944434],[-5.47744365349789,54.4271078554448],[-5.47687231118342,54.423386677527],[-5.47540654908091,54.4235082073749],[-5.46441189870355,54.4040682034293],[-5.46528203067474,54.4001542177082],[-5.45815125000125,54.3929894909045],[-5.45812630087502,54.3929453291387],[-5.4581550522784,54.3928531040074],[-5.46121576869146,54.385860718558],[-5.46591021976732,54.3835493157489],[-5.47253458686515,54.3838064492499],[-5.47350607208873,54.3849058523195],[-5.48087267783814,54.3841295815031],[-5.48132503881371,54.3841470951247],[-5.4814042265187,54.3840735494307],[-5.48165377618712,54.384047243344],[-5.48968406101673,54.3763910179864],[-5.48972795352607,54.3763412233128],[-5.492958874712,54.36538128881],[-5.49302614653041,54.3653084133808],[-5.49298563152912,54.3652905010103],[-5.49299780892732,54.3652491808957],[-5.48177546854813,54.3592727690067],[-5.48158698720869,54.358293727193],[-5.48442589742009,54.3571264146446],[-5.4897933697798,54.357891925477],[-5.49155338418582,54.3541951320306],[-5.49812370061063,54.351492258961],[-5.49817142269438,54.3514817574274],[-5.4967641358556,54.3332820510907],[-5.51597184422536,54.3243388640101],[-5.53163079904634,54.3158044955679],[-5.52718640212863,54.3105939324798],[-5.53902647420979,54.3126566789533],[-5.54224315997373,54.307881455545],[-5.5498201019749,54.3068905671202],[-5.55005311554955,54.3064379149981],[-5.55054113027579,54.3063507320996],[-5.5603203873503,54.2864827671003],[-5.57893185720598,54.2727814276134],[-5.58180236782568,54.2721671788756],[-5.59511034426482,54.2611453330518],[-5.60761687843972,54.2656980172434],[-5.60764410292548,54.2652946804472],[-5.60797162802078,54.2654211599868],[-5.60766645156813,54.2649635674773],[-5.60858887114142,54.2512944002762],[-5.61329077030654,54.2474857806071],[-5.61637066591681,54.2466503167409],[-5.61857231290478,54.2468513579324],[-5.6192101571481,54.2478966392039],[-5.62233547043403,54.2554201027734],[-5.62378660221491,54.2553946632538],[-5.62402351162284,54.255782731172],[-5.62530760371279,54.2553679794231],[-5.62831657241651,54.255315134792],[-5.6284038230697,54.254367834444],[-5.63437239647102,54.2524395006755],[-5.62971422526716,54.2581766799453],[-5.63671394177716,54.2591085565761],[-5.63634639569283,54.2632570584743],[-5.63980565703616,54.2629886432719]]],[[[-6.23992907978855,55.3120392405506],[-6.21842814962878,55.3062642456316],[-6.20535320569175,55.3069082386817],[-6.16976043857174,55.3015780943379],[-6.17305089879928,55.2945485634912],[-6.17371623540396,55.2942358445535],[-6.17395610525807,55.2926143085589],[-6.17943905459858,55.2808943367106],[-6.18094837953875,55.2799953608799],[-6.18053299118354,55.2785552032504],[-6.18992593509876,55.2584735069572],[-6.20082189065457,55.2753929170244],[-6.18874274095848,55.2849543435521],[-6.19303586103391,55.2926274351854],[-6.20710822607411,55.2927562760047],[-6.22759448618711,55.2960539974498],[-6.24345400203593,55.2930815201137],[-6.28609463639854,55.2934492699155],[-6.27000453961838,55.3069633400669],[-6.26493383511007,55.3055499973121],[-6.25967162884426,55.3087240989145],[-6.2508463278804,55.3102271465854],[-6.24630445599804,55.3094339830941],[-6.24523221905314,55.3111829038096],[-6.24010956738643,55.3120547306141],[-6.23992907978855,55.3120392405506]]]]},"properties":{"ITL125CD":"TLN","ITL125NM":"Northern Ireland"}}]}